GLOBALSTAR M075 [+]     
1 37192U 10054E   24022.09056626 -.00000073  00000+0  17011-3 0  9999
2 37192  51.9962 300.7639 0000546  63.7937  40.2222 12.62269757611337
GLOBALSTAR M073 [+]     
1 37193U 10054F   24022.02587257 -.00000070  00000+0  18827-3 0  9995
2 37193  52.0032 214.3836 0001014  81.5201  90.5890 12.62271882613153
GLOBALSTAR M083 [+]     
1 37739U 11033A   24022.31983851 -.00000094  00000+0  56870-4 0  9998
2 37739  51.9845 162.9186 0001034 115.9996 252.4107 12.62265336582578
GLOBALSTAR M088 [+]     
1 37740U 11033B   24022.30887225 -.00000086  00000+0  10136-3 0  9992
2 37740  51.9739  68.8740 0000603 152.0756 287.0907 12.62264188577759
GLOBALSTAR M091 [+]     
1 37741U 11033C   24022.24330115 -.00000085  00000+0  10681-3 0  9991
2 37741  52.0014  31.7141 0000361 160.4524 279.8687 12.62270326578531
GLOBALSTAR M085 [+]     
1 37742U 11033D   24022.07151284 -.00000092  00000+0  63936-4 0  9991
2 37742  51.9895 343.7307 0000230  99.5499 339.4838 12.62266622579025
GLOBALSTAR M081 [+]     
1 37743U 11033E   24022.09827182 -.00000094  00000+0  51857-4 0  9992
2 37743  51.9988 346.1195 0000023  80.4372   0.5711 12.62268586579173
GLOBALSTAR M089 [+]     
1 37744U 11033F   24022.15215969 -.00000079  00000+0  13822-3 0  9996
2 37744  51.9944 300.2802 0000738  39.4418 107.2988 12.62271638580029
